[{"OBJECT_NAME":"ONEWEB-0268","OBJECT_ID":"2021-060V","EPOCH":"2026-03-09T22:23:37.282560","MEAN_MOTION":13.16593671,"ECCENTRICITY":0.00015606,"INCLINATION":87.9003,"RA_OF_ASC_NODE":248.5218,"ARG_OF_PERICENTER":97.4366,"MEAN_ANOMALY":262.6943,"EPHEMERIS_TYPE":0,"CLASSIFICATION_TYPE":"U","NORAD_CAT_ID":48986,"ELEMENT_SET_NO":999,"REV_AT_EPOCH":22679,"BSTAR":1.8319038e-5,"MEAN_MOTION_DOT":2.0e-7,"MEAN_MOTION_DDOT":0},{"OBJECT_NAME":"COSMOS 252 DEB","OBJECT_ID":"1968-097D","EPOCH":"2026-03-09T22:40:32.342592","MEAN_MOTION":13.80993653,"ECCENTRICITY":0.06218464,"INCLINATION":62.2838,"RA_OF_ASC_NODE":22.8932,"ARG_OF_PERICENTER":123.8434,"MEAN_ANOMALY":242.3394,"EPHEMERIS_TYPE":0,"CLASSIFICATION_TYPE":"U","NORAD_CAT_ID":3551,"ELEMENT_SET_NO":999,"REV_AT_EPOCH":79484,"BSTAR":0.00067344756,"MEAN_MOTION_DOT":3.094e-5,"MEAN_MOTION_DDOT":0}]
